     2.10           G: GLONASS NAV DATA                     RINEX VERSION / TYPE
teqc  2015Jun23                         20220115 01:25:44UTCPGM / RUN BY / DATE
Linux 2.4.21-27.ELsmp|Opteron|gcc -static|Linux x86_64|=+   COMMENT
  2021    12    22    4.656612873077D-10                    CORR TO SYSTEM TIME
                                                            END OF HEADER
 5 21 12 23 16 15  0.0 8.470099419355D-05 9.094947017729D-13 5.760000000000D+04
   -9.383286132812D+02-2.694871902466D+00 9.313225746155D-10 0.000000000000D+00
    1.226254492188D+04 1.454041481018D+00-9.313225746155D-10 1.000000000000D+00
   -2.234637548828D+04 9.081726074219D-01 1.862645149231D-09 0.000000000000D+00
 3 21 12 23 16 15  0.0 4.865229129791D-05 9.094947017729D-13 5.760000000000D+04
   -2.316668554688D+04 6.559295654297D-01-3.725290298462D-09 0.000000000000D+00
    9.627606445312D+03-1.576900482178D-01 1.862645149231D-09 5.000000000000D+00
    4.821636718750D+03 3.488060951233D+00 1.862645149231D-09 0.000000000000D+00
14 21 12 23 16 15  0.0 7.240101695061D-05 0.000000000000D+00 5.760000000000D+04
   -1.081059570312D+04 1.319408416748D-01 0.000000000000D+00 0.000000000000D+00
    7.365787597656D+03-2.995817184448D+00-0.000000000000D+00-7.000000000000D+00
   -2.188721093750D+04-1.073757171631D+00 2.793967723846D-09 0.000000000000D+00
19 21 12 23 16 15  0.0-1.717377454042D-04-9.094947017729D-13 5.760000000000D+04
    8.741074218750D+03-1.958682060242D+00-1.862645149231D-09 0.000000000000D+00
    1.570516894531D+04-1.533883094788D+00-0.000000000000D+00 3.000000000000D+00
    1.810971777344D+04 2.275761604309D+00-9.313225746155D-10 0.000000000000D+00
 9 21 12 23 16 15  0.0 3.027729690075D-05 1.818989403546D-12 5.889000000000D+04
    9.818212890625D+03-8.628845214844D-03-9.313225746155D-10 0.000000000000D+00
    1.178535009766D+04 2.786716461182D+00-0.000000000000D+00-2.000000000000D+00
    2.037483642578D+04-1.615229606628D+00-1.862645149231D-09 0.000000000000D+00
15 21 12 23 16 45  0.0 9.940378367901D-05-0.000000000000D+00 5.940000000000D+04
   -5.832089843750D+03-1.011400222778D-01-0.000000000000D+00 0.000000000000D+00
    1.902546044922D+04-2.186677932739D+00-0.000000000000D+00 0.000000000000D+00
   -1.594470849609D+04-2.568850517273D+00 2.793967723846D-09 0.000000000000D+00
 4 21 12 23 16 45  0.0 1.202151179314D-04 1.818989403546D-12 5.940000000000D+04
   -1.841279150391D+04-5.990514755249D-01-2.793967723846D-09 0.000000000000D+00
    1.651649267578D+04 6.394615173340D-01 9.313225746155D-10 6.000000000000D+00
   -6.240700683594D+03 3.446404457092D+00 2.793967723846D-09 0.000000000000D+00
 5 21 12 23 16 45  0.0 8.470192551613D-05 9.094947017729D-13 5.940000000000D+04
   -5.351217285156D+03-2.175452232361D+00-0.000000000000D+00 0.000000000000D+00
    1.508069580078D+04 1.638648986816D+00-9.313225746155D-10 1.000000000000D+00
   -1.986908886719D+04 1.826431274414D+00 2.793967723846D-09 0.000000000000D+00
 3 21 12 23 16 45  0.0 4.865415394306D-05 9.094947017729D-13 5.940000000000D+04
   -2.138298095703D+04 1.290772438049D+00-3.725290298462D-09 0.000000000000D+00
    8.850053222656D+03-7.297267913818D-01 2.793967723846D-09 5.000000000000D+00
    1.083387402344D+04 3.149073600769D+00 9.313225746155D-10 0.000000000000D+00
 9 21 12 23 16 45  0.0 3.028009086847D-05 1.818989403546D-12 5.940000000000D+04
    1.012555419922D+04 3.253870010376D-01-1.862645149231D-09 0.000000000000D+00
    1.636827490234D+04 2.264828681946D+00-0.000000000000D+00-2.000000000000D+00
    1.671668212891D+04-2.423144340515D+00-9.313225746155D-10 0.000000000000D+00
19 21 12 23 16 45  0.0-1.717405393720D-04-9.094947017729D-13 5.973000000000D+04
    4.631396484375D+03-2.579400062561D+00-2.793967723846D-09 0.000000000000D+00
    1.301163964844D+04-1.416550636292D+00 9.313225746155D-10 3.000000000000D+00
    2.145375537109D+04 1.415744781494D+00-9.313225746155D-10 0.000000000000D+00
15 21 12 23 17 15  0.0 9.940378367901D-05-0.000000000000D+00 6.120000000000D+04
   -6.393751953125D+03-5.411472320557D-01-0.000000000000D+00 0.000000000000D+00
    1.461106201172D+04-2.674080848694D+00-0.000000000000D+00 0.000000000000D+00
   -1.989172802734D+04-1.788178443909D+00 2.793967723846D-09 0.000000000000D+00
 4 21 12 23 17 15  0.0 1.202188432217D-04 1.818989403546D-12 6.120000000000D+04
   -1.881115869141D+04 1.360912322998D-01-2.793967723846D-09 0.000000000000D+00
    1.723917626953D+04 1.272726058960D-01 1.862645149231D-09 6.000000000000D+00
    1.239038085938D+02 3.579462051392D+00 2.793967723846D-09 0.000000000000D+00
 5 21 12 23 17 15  0.0 8.470378816128D-05 9.094947017729D-13 6.120000000000D+04
   -8.681533203125D+03-1.509328842163D+00-9.313225746155D-10 0.000000000000D+00
    1.800752099609D+04 1.567752838135D+00 0.000000000000D+00 1.000000000000D+00
   -1.585634472656D+04 2.603191375732D+00 2.793967723846D-09 0.000000000000D+00
 3 21 12 23 17 15  0.0 4.865601658821D-05 9.094947017729D-13 6.120000000000D+04
   -1.866556396484D+04 1.684228897095D+00-2.793967723846D-09 0.000000000000D+00
    6.945241699219D+03-1.393342971802D+00 2.793967723846D-09 5.000000000000D+00
    1.601272460938D+04 2.568075180054D+00 0.000000000000D+00 0.000000000000D+00
 9 21 12 23 17 15  0.0 3.028474748135D-05 1.818989403546D-12 6.120000000000D+04
    1.087802832031D+04 4.745769500732D-01-1.862645149231D-09 0.000000000000D+00
    1.981675488281D+04 1.540668487549D+00 0.000000000000D+00-2.000000000000D+00
    1.176387158203D+04-3.044284820557D+00-0.000000000000D+00 0.000000000000D+00
15 21 12 23 17 45  0.0 9.940285235643D-05-0.000000000000D+00 6.300000000000D+04
   -7.815284667969D+03-1.039155960083D+00 0.000000000000D+00 0.000000000000D+00
    9.571301269531D+03-2.875432968140D+00-0.000000000000D+00 0.000000000000D+00
   -2.229875000000D+04-8.688678741455D-01 2.793967723846D-09 0.000000000000D+00
 4 21 12 23 17 45  0.0 1.202225685120D-04 1.818989403546D-12 6.300000000000D+04
   -1.802408642578D+04 7.035846710205D-01-2.793967723846D-09 0.000000000000D+00
    1.686647558594D+04-5.641222000122D-01 2.793967723846D-09 6.000000000000D+00
    6.478998046875D+03 3.435965538025D+00 1.862645149231D-09 0.000000000000D+00
 5 21 12 23 17 45  0.0 8.470471948385D-05 9.094947017729D-13 6.300000000000D+04
   -1.076306103516D+04-8.070144653320D-01-1.862645149231D-09 0.000000000000D+00
    2.055848583984D+04 1.221552848816D+00 9.313225746155D-10 1.000000000000D+00
   -1.061871289062D+04 3.178620338440D+00 2.793967723846D-09 0.000000000000D+00
 9 21 12 23 17 45  0.0 3.028754144907D-05 1.818989403546D-12 6.300000000000D+04
    1.169264550781D+04 3.895645141602D-01-1.862645149231D-09 0.000000000000D+00
    2.185251757812D+04 7.133836746216D-01 0.000000000000D+00-2.000000000000D+00
    5.898937011719D+03-3.429909706116D+00 0.000000000000D+00 0.000000000000D+00
 5 21 12 23 18 15  0.0 8.470658212900D-05 9.094947017729D-13 6.480000000000D+04
   -1.163248681641D+04-1.802864074707D-01-1.862645149231D-09 0.000000000000D+00
    2.225476953125D+04 6.262197494507D-01 1.862645149231D-09 1.000000000000D+00
   -4.561049316406D+03 3.508457183838D+00 2.793967723846D-09 0.000000000000D+00
 4 21 12 23 18 15  0.0 1.202253624797D-04 1.818989403546D-12 6.480000000000D+04
   -1.642111669922D+04 1.034397125244D+00-1.862645149231D-09 0.000000000000D+00
    1.515756347656D+04-1.339537620544D+00 3.725290298462D-09 6.000000000000D+00
    1.233387988281D+04 3.027323722839D+00 9.313225746155D-10 0.000000000000D+00
 9 21 12 23 18 15  0.0 3.029033541679D-05 1.818989403546D-12 6.480000000000D+04
    1.213482275391D+04 6.332302093506D-02-1.862645149231D-09 0.000000000000D+00
    2.239108837891D+04-1.037950515747D-01 0.000000000000D+00-2.000000000000D+00
   -4.237792968750D+02-3.549531936646D+00 9.313225746155D-10 0.000000000000D+00
 6 21 12 23 18 15  0.0-2.302695065737D-05-1.818989403546D-12 6.552000000000D+04
    2.329707519531D+03-1.359350204468D+00-0.000000000000D+00 0.000000000000D+00
    1.524626611328D+04 2.425662994385D+00-9.313225746155D-10-4.000000000000D+00
   -2.034098583984D+04 1.660962104797D+00 2.793967723846D-09 0.000000000000D+00
10 21 12 23 18 15  0.0-7.826462388039D-05-0.000000000000D+00 6.576000000000D+04
    1.562187890625D+04 1.084285736084D+00-1.862645149231D-09 0.000000000000D+00
    1.370511230469D+04 1.720622062683D+00 0.000000000000D+00-7.000000000000D+00
    1.483652783203D+04-2.721913337708D+00-0.000000000000D+00 0.000000000000D+00
 5 21 12 23 18 45  0.0 8.470751345158D-05 9.094947017729D-13 6.660000000000D+04
   -1.151489892578D+04 2.762041091919D-01-1.862645149231D-09 0.000000000000D+00
    2.270382128906D+04-1.497993469238D-01 2.793967723846D-09 1.000000000000D+00
    1.848767578125D+03 3.567386627197D+00 2.793967723846D-09 0.000000000000D+00
 4 21 12 23 18 45  0.0 1.202290877700D-04 1.818989403546D-12 6.660000000000D+04
   -1.445948925781D+04 1.101375579834D+00-9.313225746155D-10 0.000000000000D+00
    1.206144335938D+04-2.086136817932D+00 3.725290298462D-09 6.000000000000D+00
    1.723698291016D+04 2.385314941406D+00 0.000000000000D+00 0.000000000000D+00
 6 21 12 23 18 45  0.0-2.303067594767D-05-1.818989403546D-12 6.660000000000D+04
    3.897788085938D+02-7.984027862549D-01-9.313225746155D-10 0.000000000000D+00
    1.938590527344D+04 2.126125335693D+00-0.000000000000D+00-4.000000000000D+00
   -1.660529443359D+04 2.462911605835D+00 2.793967723846D-09 0.000000000000D+00
 9 21 12 23 18 45  0.0 3.029312938452D-05 1.818989403546D-12 6.660000000000D+04
    1.179734228516D+04-4.670562744141D-01-9.313225746155D-10 0.000000000000D+00
    2.155071484375D+04-8.019571304321D-01 0.000000000000D+00-2.000000000000D+00
   -6.713543945312D+03-3.393498420715D+00 1.862645149231D-09 0.000000000000D+00
10 21 12 23 18 45  0.0-7.825903594494D-05 0.000000000000D+00 6.660000000000D+04
    1.743013085938D+04 8.812026977539D-01-1.862645149231D-09 0.000000000000D+00
    1.611586816406D+04 9.535150527954D-01 0.000000000000D+00-7.000000000000D+00
    9.428512207031D+03-3.248031616211D+00 0.000000000000D+00 0.000000000000D+00
